SATELIOT_2              
1 60534U 24149BU  26136.46213514  .00000857  00000+0  81034-4 0  9991
2 60534  97.6831 211.9988 0001391 113.7574 246.3793 14.96232994 95225
NIGHTJAR                
1 60535U 24149BV  26136.61651951  .00002016  00000+0  17203-3 0  9995
2 60535  97.6839 213.7642 0001799 139.0529 221.0829 14.98817483138147
LEMUR-2-MARHISYAM       
1 60536U 24149BW  26136.47146236  .00009405  00000+0  57377-3 0  9990
2 60536  97.6881 219.2230 0001880 179.7051 180.4180 15.10550811 95695
SATELIOT_4              
1 60537U 24149BX  26136.61325233  .00001632  00000+0  14852-3 0  9998
2 60537  97.6739 211.6960 0003391 123.3264 236.8282 14.96544702 95250
PICO-02A021             
1 60538U 24149BY  26136.47837116  .00003712  00000+0  28076-3 0  9995
2 60538  97.6772 215.5926 0007137 117.4288 242.7664 15.02933663 94979
ICEYE-X43               
1 60539U 24149BZ  26136.46999046  .00001951  00000+0  16265-3 0  9996
2 60539  97.6769 213.8730 0004901 186.8884 173.2273 14.99759584 95369
HAWK-10A                
1 60540U 24149CA  26136.47513807  .00001003  00000+0  93536-4 0  9991
2 60540  97.6892 212.9327 0003926 157.4253 202.7141 14.96404396 95244
UMBRA-09                
1 60541U 24149CB  26136.48261329  .00011775  00000+0  59877-3 0  9998
2 60541  97.6969 223.1726 0001356 124.0433 236.0928 15.17009673 95912
QPS-SAR-8 (AMATERU-IV)  
1 60542U 24149CC  26136.45743813  .00003117  00000+0  23137-3 0  9990
2 60542  97.6659 215.8826 0002885 191.0670 169.0492 15.03782865 95505
ARCTIC WEATHER SATELLITE
1 60543U 24149CD  26136.18334746  .00000426  00000+0  50013-4 0  9996
2 60543  97.6808 207.5615 0001930 171.4572 188.6680 14.89798666 94536
CAPELLA-15 (ACADIA-5)   
1 60544U 24149CE  26136.47571498  .00000847  00000+0  87979-4 0  9994
2 60544  97.6779 210.1678 0004682 165.3458 194.7898 14.92462010 95125
ICEYE-X33               
1 60548U 24149CJ  26136.43510121  .00003294  00000+0  26335-3 0  9997
2 60548  97.7184 215.7687 0000454 321.8031  38.3161 15.00915183 95445
ICEYE-X40               
1 60549U 24149CK  26136.43785494  .00001496  00000+0  13220-3 0  9996
2 60549  97.6822 213.4455 0005064 160.7698 199.3717 14.97838943 95328
SATELIOT_1              
1 60550U 24149CL  26136.09740581  .00002035  00000+0  17750-3 0  9990
2 60550  97.6759 212.5315 0006995 165.5749 194.5675 14.97933427 95264
BRO-14                  
1 60551U 24149CM  26136.49414003  .00001116  00000+0  10432-3 0  9991
2 60551  97.6878 212.8412 0006374 189.1170 170.9937 14.96114404 95252
SATELIOT_3              
1 60552U 24149CN  26136.47370784  .00001264  00000+0  11220-3 0  9997
2 60552  97.6818 213.6641 0005260 177.5155 182.6094 14.97910932 95331
BRO-15                  
1 60553U 24149CP  26136.47579979  .00000602  00000+0  58652-4 0  9991
2 60553  97.6804 212.4550 0008031 183.4836 176.6331 14.96068243 95261
UM5-RIBAT               
1 60554U 24149CQ  26136.47300404  .00001809  00000+0  14683-3 0  9992
2 60554  97.6659 214.7010 0003360 112.1079 248.0502 15.00883118 95439
UM5-EOSAT               
1 60555U 24149CR  26136.38166206  .00001980  00000+0  15855-3 0  9995
2 60555  97.6656 215.5147 0007038 208.5126 151.5714 15.01288247 95443
LASARSAT                
1 62391U 24247Q   26136.23614122  .00028867  00000+0  61853-3 0  9995
2 62391  44.9749  81.4658 0005040 144.8918 215.2304 15.44289693 78379
CROCUBE                 
1 62394U 24247T   26135.55919162  .00022265  00000+0  45446-3 0  9990
2 62394  44.9721  83.0806 0004663 142.7008 217.4206 15.45851171 78295
TEVEL2-4                
1 63213U 25052D   26136.15361227  .00014552  00000+0  45254-3 0  9993
2 63213  97.3944  32.5162 0002016 166.1234 194.0064 15.33423730 65202
TEVEL2-5                
1 63214U 25052E   26136.62753060  .00015646  00000+0  48848-3 0  9993
2 63214  97.3943  32.9470 0002062 163.0015 197.1297 15.33282840 65276
TEVEL2-6                
1 63215U 25052F   26136.44330495  .00017303  00000+0  54052-3 0  9993
2 63215  97.3947  32.7475 0002146 166.3416 193.7885 15.33241069 65248
TEVEL2-1                
1 63217U 25052H   26135.22135050  .00009533  00000+0  30415-3 0  9993
2 63217  97.3922  31.1876 0001389 186.2760 173.8465 15.32713961 65047
TEVEL2-3                
1 63218U 25052J   26136.65332798  .00015979  00000+0  50637-3 0  9999
2 63218  97.3922  32.6363 0001555 182.3566 177.7669 15.32802549 65265
TEVEL2-2                
1 63219U 25052K   26136.46223559  .00015854  00000+0  50314-3 0  9997
2 63219  97.3920  32.4289 0001524 182.5666 177.5568 15.32756317 65232
