OBJECT_NAME,OBJECT_ID,EPOCH,MEAN_MOTION,ECCENTRICITY,INCLINATION,RA_OF_ASC_NODE,ARG_OF_PERICENTER,MEAN_ANOMALY,EPHEMERIS_TYPE,CLASSIFICATION_TYPE,NORAD_CAT_ID,ELEMENT_SET_NO,REV_AT_EPOCH,BSTAR,MEAN_MOTION_DOT,MEAN_MOTION_DDOT
SATELIOT_2,2024-149BU,2026-05-16T11:05:28.476960,14.96232994,.00013906,97.6831,211.9988,113.7574,246.3793,0,U,60534,999,9522,.81033684E-4,.857E-5,0
NIGHTJAR,2024-149BV,2026-05-16T14:47:47.285664,14.98817483,.00017999,97.6839,213.7642,139.0529,221.0829,0,U,60535,999,13814,.17203244E-3,.2016E-4,0
LEMUR-2-MARHISYAM,2024-149BW,2026-05-16T11:18:54.348768,15.10550811,.00018796,97.6881,219.2230,179.7051,180.4180,0,U,60536,999,9569,.57377099E-3,.9405E-4,0
SATELIOT_4,2024-149BX,2026-05-16T14:43:05.001312,14.96544702,.00033915,97.6739,211.6960,123.3264,236.8282,0,U,60537,999,9525,.14851797E-3,.1632E-4,0
PICO-02A021,2024-149BY,2026-05-16T11:28:51.268224,15.02933663,.00071372,97.6772,215.5926,117.4288,242.7664,0,U,60538,999,9497,.28076284E-3,.3712E-4,0
ICEYE-X43,2024-149BZ,2026-05-16T11:16:47.176608,14.99759585,.00049015,97.6769,213.8730,186.8884,173.2273,0,U,60539,999,9536,.16264678E-3,.1951E-4,0
HAWK-10A,2024-149CA,2026-05-16T11:24:11.929248,14.96404396,.00039259,97.6892,212.9327,157.4253,202.7141,0,U,60540,999,9524,.93535795E-4,.1003E-4,0
UMBRA-09,2024-149CB,2026-05-16T11:34:57.788256,15.17009673,.00013556,97.6969,223.1726,124.0433,236.0928,0,U,60541,999,9591,.59877368E-3,.11775E-3,0
QPS-SAR-8 (AMATERU-IV),2024-149CC,2026-05-16T10:58:42.654432,15.03782865,.00028847,97.6659,215.8826,191.0670,169.0492,0,U,60542,999,9550,.23137274E-3,.3117E-4,0
ARCTIC WEATHER SATELLITE,2024-149CD,2026-05-16T04:24:01.220544,14.89798666,.000193,97.6808,207.5615,171.4572,188.6680,0,U,60543,999,9453,.50013488E-4,.426E-5,0
CAPELLA-15 (ACADIA-5),2024-149CE,2026-05-16T11:25:01.774272,14.92462010,.00046817,97.6779,210.1678,165.3458,194.7898,0,U,60544,999,9512,.87979077E-4,.847E-5,0
ICEYE-X33,2024-149CJ,2026-05-16T10:26:32.744544,15.00915183,.00004547,97.7184,215.7687,321.8031,38.3161,0,U,60548,999,9544,.2633466E-3,.3294E-4,0
ICEYE-X40,2024-149CK,2026-05-16T10:30:30.667680,14.97838943,.00050636,97.6822,213.4455,160.7698,199.3717,0,U,60549,999,9532,.13219544E-3,.1496E-4,0
SATELIOT_1,2024-149CL,2026-05-16T02:20:15.861984,14.97933427,.00069953,97.6759,212.5315,165.5749,194.5675,0,U,60550,999,9526,.1774967E-3,.2035E-4,0
BRO-14,2024-149CM,2026-05-16T11:51:33.699456,14.96114404,.00063742,97.6878,212.8412,189.1170,170.9937,0,U,60551,999,9525,.10431972E-3,.1116E-4,0
SATELIOT_3,2024-149CN,2026-05-16T11:22:08.357376,14.97910932,.00052596,97.6818,213.6641,177.5155,182.6094,0,U,60552,999,9533,.11220402E-3,.1264E-4,0
BRO-15,2024-149CP,2026-05-16T11:25:09.102720,14.96068243,.00080309,97.6804,212.4550,183.4836,176.6331,0,U,60553,999,9526,.58652287E-4,.602E-5,0
UM5-RIBAT,2024-149CQ,2026-05-16T11:21:07.549056,15.00883118,.000336,97.6659,214.7010,112.1079,248.0502,0,U,60554,999,9543,.14682513E-3,.1809E-4,0
UM5-EOSAT,2024-149CR,2026-05-16T09:09:35.601984,15.01288247,.00070389,97.6656,215.5147,208.5126,151.5714,0,U,60555,999,9544,.15855439E-3,.198E-4,0
LASARSAT,2024-247Q,2026-05-16T05:40:02.601408,15.44289693,.00050408,44.9749,81.4658,144.8918,215.2304,0,U,62391,999,7837,.61853048E-3,.28867E-3,0
CROCUBE,2024-247T,2026-05-15T13:25:14.155968,15.45851171,.00046634,44.9721,83.0806,142.7008,217.4206,0,U,62394,999,7829,.454458E-3,.22265E-3,0
TEVEL2-4,2025-052D,2026-05-16T03:41:12.100128,15.33423730,.00020169,97.3944,32.5162,166.1234,194.0064,0,U,63213,999,6520,.45253795E-3,.14552E-3,0
TEVEL2-5,2025-052E,2026-05-16T15:03:38.643840,15.33282840,.0002062,97.3943,32.9470,163.0015,197.1297,0,U,63214,999,6527,.48847757E-3,.15646E-3,0
TEVEL2-6,2025-052F,2026-05-16T10:38:21.548544,15.33241069,.00021459,97.3947,32.7475,166.3416,193.7885,0,U,63215,999,6524,.54051847E-3,.17303E-3,0
TEVEL2-1,2025-052H,2026-05-15T05:18:44.683200,15.32713961,.0001389,97.3922,31.1876,186.2760,173.8465,0,U,63217,999,6504,.30415181E-3,.9533E-4,0
TEVEL2-3,2025-052J,2026-05-16T15:40:47.537472,15.32802549,.00015554,97.3922,32.6363,182.3566,177.7669,0,U,63218,999,6526,.50636508E-3,.15979E-3,0
TEVEL2-2,2025-052K,2026-05-16T11:05:37.155840,15.32756318,.00015243,97.3920,32.4289,182.5666,177.5568,0,U,63219,999,6523,.50313557E-3,.15854E-3,0
